start=new Date('2023-05-11T00:00:00.000Z').valueOf();
sats=[{"PERIAPSIS":"546.692","ARG_OF_PERICENTER":"92.0882","SEMIMAJOR_AXIS":"6925.429","OBJECT_NAME":"STARLINK-2322","ECCENTRICITY":"0.00008690","EPOCH":"2023-05-10T12:58:20.426880","ELEMENT_SET_NO":"999","EPHEMERIS_TYPE":"0","LAUNCH_DATE":"2021-03-11","MEAN_ANOMALY":"268.0206","DECAY_DATE":null,"MEAN_ELEMENT_THEORY":"SGP4","SITE":"AFETR","MEAN_MOTION":"15.06373772","PERIOD":"95.594","REV_AT_EPOCH":"12073","TLE_LINE2":"2 47791  53.0528 214.0962 0000869  92.0882 268.0206 15.06373772120737","INCLINATION":"53.0528","BSTAR":"0.00206160000000","RCS_SIZE":"LARGE","GP_ID":"231532584","MEAN_MOTION_DDOT":"0.0000000000000","OBJECT_ID":"2021-018E","REF_FRAME":"TEME","NORAD_CAT_ID":"47791","MEAN_MOTION_DOT":"0.00030538","TIME_SYSTEM":"UTC","RA_OF_ASC_NODE":"214.0962","CLASSIFICATION_TYPE":"U","FILE":"3904555","TLE_LINE1":"1 47791U 21018E   23130.54051420  .00030538  00000-0  20616-2 0  9996","APOAPSIS":"547.896","COUNTRY_CODE":"US","OBJECT_TYPE":"PAYLOAD","CENTER_NAME":"EARTH"},{"GP_ID":"231565712","MEAN_MOTION_DDOT":"0.0000000000000","OBJECT_ID":"2021-018F","REF_FRAME":"TEME","RCS_SIZE":"LARGE","RA_OF_ASC_NODE":"192.5456","CLASSIFICATION_TYPE":"U","NORAD_CAT_ID":"47792","MEAN_MOTION_DOT":"0.00023839","TIME_SYSTEM":"UTC","TLE_LINE1":"1 47792U 21018F   23130.88515458  .00023839  00000-0  16139-2 0  9991","APOAPSIS":"547.884","COUNTRY_CODE":"US","OBJECT_TYPE":"PAYLOAD","CENTER_NAME":"EARTH","FILE":"3904830","ARG_OF_PERICENTER":"78.2443","ECCENTRICITY":"0.00009650","SEMIMAJOR_AXIS":"6925.350","OBJECT_NAME":"STARLINK-2334","PERIAPSIS":"546.547","EPHEMERIS_TYPE":"0","LAUNCH_DATE":"2021-03-11","EPOCH":"2023-05-10T21:14:37.355712","ELEMENT_SET_NO":"999","DECAY_DATE":null,"MEAN_ANOMALY":"281.8654","MEAN_ELEMENT_THEORY":"SGP4","SITE":"AFETR","INCLINATION":"53.0521","BSTAR":"0.00161390000000","MEAN_MOTION":"15.06399410","PERIOD":"95.592","REV_AT_EPOCH":"12106","TLE_LINE2":"2 47792  53.0521 192.5456 0000965  78.2443 281.8654 15.06399410121069"},{"RCS_SIZE":"LARGE","MEAN_MOTION_DDOT":"0.0000000000000","GP_ID":"231533079","REF_FRAME":"TEME","OBJECT_ID":"2021-018G","MEAN_MOTION_DOT":"0.00021925","NORAD_CAT_ID":"47793","TIME_SYSTEM":"UTC","CLASSIFICATION_TYPE":"U","RA_OF_ASC_NODE":"194.2696","FILE":"3904555","APOAPSIS":"548.078","TLE_LINE1":"1 47793U 21018G   23130.50181545  .00021925  00000-0  14867-2 0  9997","OBJECT_TYPE":"PAYLOAD","CENTER_NAME":"EARTH","COUNTRY_CODE":"US","PERIAPSIS":"546.427","ARG_OF_PERICENTER":"87.3943","OBJECT_NAME":"STARLINK-2338","SEMIMAJOR_AXIS":"6925.388","ECCENTRICITY":"0.00011920","EPOCH":"2023-05-10T12:02:36.854880","ELEMENT_SET_NO":"999","EPHEMERIS_TYPE":"0","LAUNCH_DATE":"2021-03-11","MEAN_ELEMENT_THEORY":"SGP4","DECAY_DATE":null,"MEAN_ANOMALY":"272.7183","SITE":"AFETR","PERIOD":"95.593","MEAN_MOTION":"15.06387290","TLE_LINE2":"2 47793  53.0522 194.2696 0001192  87.3943 272.7183 15.06387290120995","REV_AT_EPOCH":"12099","INCLINATION":"53.0522","BSTAR":"0.00148670000000"},{"INCLINATION":"53.0525","BSTAR":"0.00126670000000","MEAN_MOTION":"15.06382442","PERIOD":"95.593","REV_AT_EPOCH":"12099","TLE_LINE2":"2 47794  53.0525 194.5465 0001387  87.1136 273.0012 15.06382442120993","MEAN_ANOMALY":"273.0012","DECAY_DATE":null,"MEAN_ELEMENT_THEORY":"SGP4","SITE":"AFETR","EPHEMERIS_TYPE":"0","LAUNCH_DATE":"2021-03-11","EPOCH":"2023-05-10T10:32:23.049024","ELEMENT_SET_NO":"999","ARG_OF_PERICENTER":"87.1136","ECCENTRICITY":"0.00013870","SEMIMAJOR_AXIS":"6925.402","OBJECT_NAME":"STARLINK-2341","PERIAPSIS":"546.307","TLE_LINE1":"1 47794U 21018H   23130.43915566  .00018627  00000-0  12667-2 0  9999","APOAPSIS":"548.228","COUNTRY_CODE":"US","OBJECT_TYPE":"PAYLOAD","CENTER_NAME":"EARTH","FILE":"3904555","RA_OF_ASC_NODE":"194.5465","CLASSIFICATION_TYPE":"U","NORAD_CAT_ID":"47794","MEAN_MOTION_DOT":"0.00018627","TIME_SYSTEM":"UTC","GP_ID":"231533319","MEAN_MOTION_DDOT":"0.0000000000000","OBJECT_ID":"2021-018H","REF_FRAME":"TEME","RCS_SIZE":"LARGE"},{"REF_FRAME":"TEME","OBJECT_ID":"2021-018J","MEAN_MOTION_DDOT":"0.0000000000000","GP_ID":"231565461","RCS_SIZE":"LARGE","CLASSIFICATION_TYPE":"U","RA_OF_ASC_NODE":"192.5132","TIME_SYSTEM":"UTC","MEAN_MOTION_DOT":"0.00025572","NORAD_CAT_ID":"47795","OBJECT_TYPE":"PAYLOAD","CENTER_NAME":"EARTH","COUNTRY_CODE":"US","APOAPSIS":"548.112","TLE_LINE1":"1 47795U 21018J   23130.89252453  .00025572  00000-0  17291-2 0  9994","FILE":"3904830","OBJECT_NAME":"STARLINK-2347","SEMIMAJOR_AXIS":"6925.330","ECCENTRICITY":"0.00013240","ARG_OF_PERICENTER":"91.9569","PERIAPSIS":"546.278","LAUNCH_DATE":"2021-03-11","EPHEMERIS_TYPE":"0","ELEMENT_SET_NO":"999","EPOCH":"2023-05-10T21:25:14.119392","SITE":"AFETR","MEAN_ELEMENT_THEORY":"SGP4","DECAY_DATE":null,"MEAN_ANOMALY":"268.1572","BSTAR":"0.00172910000000","INCLINATION":"53.0521","TLE_LINE2":"2 47795  53.0521 192.5132 0001324  91.9569 268.1572 15.06406177121116","REV_AT_EPOCH":"12111","PERIOD":"95.592","MEAN_MOTION":"15.06406177"},{"MEAN_MOTION":"15.06400590","PERIOD":"95.592","REV_AT_EPOCH":"12102","TLE_LINE2":"2 47796  53.0518 193.6363 0001013  94.5448 265.5656 15.06400590121028","INCLINATION":"53.0518","BSTAR":"0.00228340000000","DECAY_DATE":null,"MEAN_ANOMALY":"265.5656","MEAN_ELEMENT_THEORY":"SGP4","SITE":"AFETR","EPOCH":"2023-05-10T15:24:18.796608","ELEMENT_SET_NO":"999","EPHEMERIS_TYPE":"0","LAUNCH_DATE":"2021-03-11","PERIAPSIS":"546.510","ARG_OF_PERICENTER":"94.5448","OBJECT_NAME":"STARLINK-2373","SEMIMAJOR_AXIS":"6925.347","ECCENTRICITY":"0.00010130","FILE":"3904830","TLE_LINE1":"1 47796U 21018K   23130.64188422  .00033894  00000-0  22834-2 0  9997","APOAPSIS":"547.913","COUNTRY_CODE":"US","CENTER_NAME":"EARTH","OBJECT_TYPE":"PAYLOAD","NORAD_CAT_ID":"47796","MEAN_MOTION_DOT":"0.00033894","TIME_SYSTEM":"UTC","RA_OF_ASC_NODE":"193.6363","CLASSIFICATION_TYPE":"U","RCS_SIZE":"LARGE","GP_ID":"231566213","MEAN_MOTION_DDOT":"0.0000000000000","OBJECT_ID":"2021-018K","REF_FRAME":"TEME"},{"APOAPSIS":"548.025","TLE_LINE1":"1 47797U 21018L   23130.61193108  .00029475  00000-0  19906-2 0  9998","OBJECT_TYPE":"PAYLOAD","CENTER_NAME":"EARTH","COUNTRY_CODE":"US","FILE":"3904830","CLASSIFICATION_TYPE":"U","RA_OF_ASC_NODE":"218.7768","MEAN_MOTION_DOT":"0.00029475","NORAD_CAT_ID":"47797","TIME_SYSTEM":"UTC","MEAN_MOTION_DDOT":"0.0000000000000","GP_ID":"231566464","REF_FRAME":"TEME","OBJECT_ID":"2021-018L","RCS_SIZE":"LARGE","INCLINATION":"53.0528","BSTAR":"0.00199060000000","PERIOD":"95.594","MEAN_MOTION":"15.06378028","TLE_LINE2":"2 47797  53.0528 218.7768 0001074  95.1916 264.9196 15.06378028120663","REV_AT_EPOCH":"12066","MEAN_ELEMENT_THEORY":"SGP4","MEAN_ANOMALY":"264.9196","DECAY_DATE":null,"SITE":"AFETR","EPHEMERIS_TYPE":"0","LAUNCH_DATE":"2021-03-11","EPOCH":"2023-05-10T14:41:10.845312","ELEMENT_SET_NO":"999","ARG_OF_PERICENTER":"95.1916","OBJECT_NAME":"STARLINK-2377","SEMIMAJOR_AXIS":"6925.416","ECCENTRICITY":"0.00010740","PERIAPSIS":"546.537"},{"DECAY_DATE":null,"MEAN_ANOMALY":"269.1865","MEAN_ELEMENT_THEORY":"SGP4","SITE":"AFETR","INCLINATION":"53.0528","BSTAR":"0.00175370000000","MEAN_MOTION":"15.06385466","PERIOD":"95.593","REV_AT_EPOCH":"12064","TLE_LINE2":"2 47798  53.0528 194.4835 0001281  90.9271 269.1865 15.06385466120648","ARG_OF_PERICENTER":"90.9271","ECCENTRICITY":"0.00012810","SEMIMAJOR_AXIS":"6925.393","OBJECT_NAME":"STARLINK-2379","PERIAPSIS":"546.371","EPHEMERIS_TYPE":"0","LAUNCH_DATE":"2021-03-11","EPOCH":"2023-05-10T10:53:36.824352","ELEMENT_SET_NO":"999","TLE_LINE1":"1 47798U 21018M   23130.45389843  .00025926  00000-0  17537-2 0  9999","APOAPSIS":"548.145","COUNTRY_CODE":"US","CENTER_NAME":"EARTH","OBJECT_TYPE":"PAYLOAD","FILE":"3904679","GP_ID":"231540559","MEAN_MOTION_DDOT":"0.0000000000000","OBJECT_ID":"2021-018M","REF_FRAME":"TEME","RCS_SIZE":"LARGE","RA_OF_ASC_NODE":"194.4835","CLASSIFICATION_TYPE":"U","NORAD_CAT_ID":"47798","MEAN_MOTION_DOT":"0.00025926","TIME_SYSTEM":"UTC"},{"FILE":"3904555","APOAPSIS":"548.142","TLE_LINE1":"1 47799U 21018N   23130.45020703  .00026030  00000-0  17606-2 0  9991","OBJECT_TYPE":"PAYLOAD","CENTER_NAME":"EARTH","COUNTRY_CODE":"US","RCS_SIZE":"LARGE","MEAN_MOTION_DDOT":"0.0000000000000","GP_ID":"231532585","REF_FRAME":"TEME","OBJECT_ID":"2021-018N","MEAN_MOTION_DOT":"0.00026030","NORAD_CAT_ID":"47799","TIME_SYSTEM":"UTC","CLASSIFICATION_TYPE":"U","RA_OF_ASC_NODE":"194.4998","MEAN_ELEMENT_THEORY":"SGP4","MEAN_ANOMALY":"264.7300","DECAY_DATE":null,"SITE":"AFETR","PERIOD":"95.593","MEAN_MOTION":"15.06385980","TLE_LINE2":"2 47799  53.0523 194.4998 0001278  95.3835 264.7300 15.06385980120988","REV_AT_EPOCH":"12098","INCLINATION":"53.0523","BSTAR":"0.00176060000000","PERIAPSIS":"546.371","ARG_OF_PERICENTER":"95.3835","SEMIMAJOR_AXIS":"6925.392","OBJECT_NAME":"STARLINK-2380","ECCENTRICITY":"0.00012780","EPOCH":"2023-05-10T10:48:17.887392","ELEMENT_SET_NO":"999","EPHEMERIS_TYPE":"0","LAUNCH_DATE":"2021-03-11"},{"MEAN_ELEMENT_THEORY":"SGP4","MEAN_ANOMALY":"265.4935","DECAY_DATE":null,"SITE":"AFETR","INCLINATION":"53.0530","BSTAR":"0.00141090000000","PERIOD":"95.592","MEAN_MOTION":"15.06405169","TLE_LINE2":"2 47800  53.0530 192.6163 0001273  94.6199 265.4935 15.06405169121056","REV_AT_EPOCH":"12105","ARG_OF_PERICENTER":"94.6199","OBJECT_NAME":"STARLINK-2381","SEMIMAJOR_AXIS":"6925.333","ECCENTRICITY":"0.00012730","PERIAPSIS":"546.316","EPHEMERIS_TYPE":"0","LAUNCH_DATE":"2021-03-11","EPOCH":"2023-05-10T20:53:23.140608","ELEMENT_SET_NO":"999","APOAPSIS":"548.079","TLE_LINE1":"1 47800U 21018P   23130.87040672  .00020799  00000-0  14109-2 0  9998","CENTER_NAME":"EARTH","OBJECT_TYPE":"PAYLOAD","COUNTRY_CODE":"US","FILE":"3904830","MEAN_MOTION_DDOT":"0.0000000000000","GP_ID":"231565713","REF_FRAME":"TEME","OBJECT_ID":"2021-018P","RCS_SIZE":"LARGE","CLASSIFICATION_TYPE":"U","RA_OF_ASC_NODE":"192.6163","MEAN_MOTION_DOT":"0.00020799","NORAD_CAT_ID":"47800","TIME_SYSTEM":"UTC"}];
